OBJECT_NAME,OBJECT_ID,EPOCH,MEAN_MOTION,ECCENTRICITY,INCLINATION,RA_OF_ASC_NODE,ARG_OF_PERICENTER,MEAN_ANOMALY,EPHEMERIS_TYPE,CLASSIFICATION_TYPE,NORAD_CAT_ID,ELEMENT_SET_NO,REV_AT_EPOCH,BSTAR,MEAN_MOTION_DOT,MEAN_MOTION_DDOT
STARLINK-37834,2026-126J,2026-06-18T20:00:01.999872,15.75196834,.00014728,97.2836,29.9267,99.2472,28.3369,0,U,69428,999,300,-.33238779E-3,-.49437E-3,0
STARLINK-37857,2026-126K,2026-06-18T20:00:01.999872,15.79981491,.00013539,97.2827,29.9366,93.1977,55.0306,0,U,69429,999,300,-.51279336E-3,-.93694E-3,0
STARLINK-37866,2026-126L,2026-06-18T20:00:01.999872,15.79970946,.00013726,97.2828,29.9361,96.3077,52.9485,0,U,69430,999,305,-.43879607E-3,-.80279E-3,0
STARLINK-37555,2026-126M,2026-06-18T20:00:01.999872,15.79968571,.00013887,97.2826,29.9364,87.3250,62.9577,0,U,69431,999,305,-.4733144E-3,-.86512E-3,0
STARLINK-37870,2026-126N,2026-06-18T20:00:01.999872,15.79975260,.00014059,97.2827,29.9373,97.7945,53.5132,0,U,69432,999,300,-.47929381E-3,-.87619E-3,0
STARLINK-37872,2026-126P,2026-06-18T20:00:01.999872,15.79987702,.00013016,97.2829,29.9379,93.1991,59.1293,0,U,69433,999,300,-.56032323E-3,-.102293E-2,0
STARLINK-37815,2026-126Q,2026-06-18T20:00:01.999872,15.75201141,.0001368,97.2831,29.9087,94.8772,348.7129,0,U,69434,999,300,-.46581581E-3,-.69084E-3,0
STARLINK-37801,2026-126R,2026-06-18T20:00:01.999872,15.79854634,.00018885,97.2830,29.9377,74.8633,79.5160,0,U,69435,999,305,-.12229239E-1,-.1951427E-1,0
STARLINK-37800,2026-126S,2026-06-18T20:00:01.999872,15.76519679,.00014354,97.2836,29.9365,72.7771,77.9610,0,U,69436,999,300,-.11704798E-1,-.1613189E-1,0
STARLINK-37792,2026-126T,2026-06-18T20:00:01.999872,15.79960800,.00014247,97.2829,29.9388,88.4848,67.9515,0,U,69437,999,305,-.39919648E-3,-.73074E-3,0
STARLINK-37783,2026-126U,2026-06-18T20:00:01.999872,15.79931672,.00012894,97.2829,29.9406,84.1138,74.3792,0,U,69438,999,305,.45253145E-4,.8194E-4,0
STARLINK-37771,2026-126V,2026-06-18T20:00:01.999872,15.75189898,.00013736,97.2829,29.8977,90.2947,329.2990,0,U,69439,999,300,-.32581699E-3,-.48452E-3,0
STARLINK-37747,2026-126W,2026-06-18T20:00:01.999872,15.79967607,.00015068,97.2831,29.9394,101.2618,56.1988,0,U,69440,999,300,-.44535449E-3,-.81455E-3,0
STARLINK-37629,2026-127A,2026-06-18T22:00:01.999584,15.80485258,.00010024,53.1588,253.8429,61.2481,65.2878,0,U,69443,999,291,-.11614061E-1,-.1956447E-1,0
STARLINK-37509,2026-127B,2026-06-18T22:00:01.999584,15.80856186,.00010113,53.1585,253.8198,74.2051,63.6319,0,U,69444,999,291,.11396325E-3,.21833E-3,0
STARLINK-37641,2026-127C,2026-06-18T22:00:01.999584,15.80871991,.00013287,53.1586,253.8027,56.5438,89.5511,0,U,69445,999,291,.13619356E-3,.26262E-3,0
STARLINK-37522,2026-127D,2026-06-18T22:00:01.999584,15.80143795,.00011856,53.1588,253.7866,69.6796,84.0954,0,U,69446,999,291,-.11817023E-1,-.1959083E-1,0
STARLINK-37640,2026-127E,2026-06-18T22:00:01.999584,15.80852499,.00011364,53.1585,253.7697,71.6501,90.2610,0,U,69447,999,291,.23319534E-3,.45525E-3,0
STARLINK-37572,2026-127F,2026-06-18T22:00:01.999584,15.80883215,.00011485,53.1583,253.7356,66.5932,111.8617,0,U,69448,999,291,-.30207837E-4,-.6659E-4,0
STARLINK-37643,2026-127G,2026-06-18T22:00:01.999584,15.78703433,.00012585,53.1587,253.7264,68.2249,114.5460,0,U,69449,999,291,-.12569199E-1,-.1951298E-1,0
STARLINK-37601,2026-127H,2026-06-18T22:00:01.999584,15.77511913,.00015696,53.1590,253.7164,71.1672,116.2690,0,U,69450,999,291,-.11582316E-1,-.1733306E-1,0
STARLINK-37578,2026-127J,2026-06-18T22:00:01.999584,15.80872260,.00009501,53.1586,253.6922,72.3169,126.8894,0,U,69451,999,291,.86804639E-4,.16466E-3,0
STARLINK-37577,2026-127K,2026-06-18T22:00:01.999584,15.80885457,.00009643,53.1587,253.6774,72.2724,134.2314,0,U,69452,999,291,-.14935954E-3,-.30091E-3,0
STARLINK-37500,2026-127L,2026-06-18T22:00:01.999584,15.80861943,.00011724,53.1586,253.6442,73.3358,149.3164,0,U,69453,999,291,.13599041E-3,.26209E-3,0
STARLINK-37575,2026-127M,2026-06-18T22:00:01.999584,15.80873327,.00012353,53.1586,253.6408,48.0801,175.8699,0,U,69454,999,291,-.1860233E-5,-.1066E-4,0
STARLINK-37642,2026-127N,2026-06-18T22:00:01.999584,15.81290685,.00009581,53.1587,253.5910,97.4773,150.6504,0,U,69455,999,291,-.87362031E-2,-.1544911E-1,0
STARLINK-37513,2026-127P,2026-06-18T22:00:01.999584,15.80879537,.00010889,53.1583,253.5462,88.6990,180.7518,0,U,69456,999,292,.36356182E-4,.6484E-4,0
STARLINK-37563,2026-127Q,2026-06-18T22:00:01.999584,15.80873636,.0001505,53.1584,253.5156,82.0958,202.1483,0,U,69457,999,292,.97741228E-4,.18634E-3,0
STARLINK-37565,2026-127R,2026-06-18T22:00:01.999584,15.80881779,.00006972,53.1583,253.5246,67.1681,212.9272,0,U,69458,999,292,-.73583672E-4,-.15201E-3,0
STARLINK-37498,2026-127S,2026-06-18T22:00:01.999584,15.80414480,.00009173,53.1586,253.5217,63.5997,217.8552,0,U,69459,999,292,-.11811579E-1,-.19794E-1,0
