STARLINK-37834          
1 69428U 26126J   26169.83335648 -.00049437  00000+0 -33239-3 0  9991
2 69428  97.2836  29.9267 0001472  99.2472  28.3369 15.75196834  3001
STARLINK-37857          
1 69429U 26126K   26169.83335648 -.00093694  00000+0 -51279-3 0  9990
2 69429  97.2827  29.9366 0001353  93.1977  55.0306 15.79981491  3006
STARLINK-37866          
1 69430U 26126L   26169.83335648 -.00080279  00000+0 -43880-3 0  9996
2 69430  97.2828  29.9361 0001372  96.3077  52.9485 15.79970946  3053
STARLINK-37555          
1 69431U 26126M   26169.83335648 -.00086512  00000+0 -47331-3 0  9998
2 69431  97.2826  29.9364 0001388  87.3250  62.9577 15.79968571  3059
STARLINK-37870          
1 69432U 26126N   26169.83335648 -.00087619  00000+0 -47929-3 0  9991
2 69432  97.2827  29.9373 0001405  97.7945  53.5132 15.79975260  3008
STARLINK-37872          
1 69433U 26126P   26169.83335648 -.00102293  00000+0 -56032-3 0  9993
2 69433  97.2829  29.9379 0001301  93.1991  59.1293 15.79987702  3007
STARLINK-37815          
1 69434U 26126Q   26169.83335648 -.00069084  00000+0 -46582-3 0  9993
2 69434  97.2831  29.9087 0001368  94.8772 348.7129 15.75201141  3002
STARLINK-37801          
1 69435U 26126R   26169.83335648 -.01951427  00000+0 -12229-1 0  9995
2 69435  97.2830  29.9377 0001888  74.8633  79.5160 15.79854634  3059
STARLINK-37800          
1 69436U 26126S   26169.83335648 -.01613189  00000+0 -11705-1 0  9994
2 69436  97.2836  29.9365 0001435  72.7771  77.9610 15.76519679  3002
STARLINK-37792          
1 69437U 26126T   26169.83335648 -.00073074  00000+0 -39920-3 0  9998
2 69437  97.2829  29.9388 0001424  88.4848  67.9515 15.79960800  3054
STARLINK-37783          
1 69438U 26126U   26169.83335648  .00008194  00000+0  45253-4 0  9995
2 69438  97.2829  29.9406 0001289  84.1138  74.3792 15.79931672  3054
STARLINK-37771          
1 69439U 26126V   26169.83335648 -.00048452  00000+0 -32582-3 0  9999
2 69439  97.2829  29.8977 0001373  90.2947 329.2990 15.75189898  3005
STARLINK-37747          
1 69440U 26126W   26169.83335648 -.00081455  00000+0 -44535-3 0  9992
2 69440  97.2831  29.9394 0001506 101.2618  56.1988 15.79967607  3009
STARLINK-37629          
1 69443U 26127A   26169.91668981 -.01956447  00000+0 -11614-1 0  9997
2 69443  53.1588 253.8429 0001002  61.2481  65.2878 15.80485258  2910
STARLINK-37509          
1 69444U 26127B   26169.91668981  .00021833  00000+0  11396-3 0  9996
2 69444  53.1585 253.8198 0001011  74.2051  63.6319 15.80856186  2912
STARLINK-37641          
1 69445U 26127C   26169.91668981  .00026262  00000+0  13619-3 0  9998
2 69445  53.1586 253.8027 0001328  56.5438  89.5511 15.80871991  2910
STARLINK-37522          
1 69446U 26127D   26169.91668981 -.01959083  00000+0 -11817-1 0  9994
2 69446  53.1588 253.7866 0001185  69.6796  84.0954 15.80143795  2911
STARLINK-37640          
1 69447U 26127E   26169.91668981  .00045525  00000+0  23320-3 0  9993
2 69447  53.1585 253.7697 0001136  71.6501  90.2610 15.80852499  2910
STARLINK-37572          
1 69448U 26127F   26169.91668981 -.00006659  00000+0 -30208-4 0  9995
2 69448  53.1583 253.7356 0001148  66.5932 111.8617 15.80883215  2912
STARLINK-37643          
1 69449U 26127G   26169.91668981 -.01951298  00000+0 -12569-1 0  9992
2 69449  53.1587 253.7264 0001258  68.2249 114.5460 15.78703433  2913
STARLINK-37601          
1 69450U 26127H   26169.91668981 -.01733306  00000+0 -11582-1 0  9996
2 69450  53.1590 253.7164 0001569  71.1672 116.2690 15.77511913  2919
STARLINK-37578          
1 69451U 26127J   26169.91668981  .00016466  00000+0  86805-4 0  9998
2 69451  53.1586 253.6922 0000950  72.3169 126.8894 15.80872260  2915
STARLINK-37577          
1 69452U 26127K   26169.91668981 -.00030091  00000+0 -14936-3 0  9996
2 69452  53.1587 253.6774 0000964  72.2724 134.2314 15.80885457  2915
STARLINK-37500          
1 69453U 26127L   26169.91668981  .00026209  00000+0  13599-3 0  9995
2 69453  53.1586 253.6442 0001172  73.3358 149.3164 15.80861943  2918
STARLINK-37575          
1 69454U 26127M   26169.91668981 -.00001066  00000+0 -18602-5 0  9994
2 69454  53.1586 253.6408 0001235  48.0801 175.8699 15.80873327  2919
STARLINK-37642          
1 69455U 26127N   26169.91668981 -.01544911  00000+0 -87362-2 0  9993
2 69455  53.1587 253.5910 0000958  97.4773 150.6504 15.81290685  2912
STARLINK-37513          
1 69456U 26127P   26169.91668981  .00006484  00000+0  36356-4 0  9998
2 69456  53.1583 253.5462 0001088  88.6990 180.7518 15.80879537  2927
STARLINK-37563          
1 69457U 26127Q   26169.91668981  .00018634  00000+0  97741-4 0  9994
2 69457  53.1584 253.5156 0001505  82.0958 202.1483 15.80873636  2929
STARLINK-37565          
1 69458U 26127R   26169.91668981 -.00015201  00000+0 -73584-4 0  9993
2 69458  53.1583 253.5246 0000697  67.1681 212.9272 15.80881779  2929
STARLINK-37498          
1 69459U 26127S   26169.91668981 -.01979400  00000+0 -11812-1 0  9998
2 69459  53.1586 253.5217 0000917  63.5997 217.8552 15.80414480  2922
